STARLINK-6347
1 57359U 23099AH  26090.14518045 -.00059475  00000+0 -35564-2 0  9993
2 57359  42.9991 119.3968 0004121 105.0807 255.0495 15.10578697149497
